{
  "type": "FeatureCollection",
  "features": [
    {
      "type": "Feature",
      "properties": {
        "norad_id": 67095,
        "name": "STARLINK-36227",
        "group": "last-30-days",
        "lat": -68.01387206011445,
        "lon": 155.18006840706082,
        "alt_km": 313.55848952270935,
        "timestamp": "2025-12-23T09:49:05.800837+00:00",
        "meta_object_name": "STARLINK-36227",
        "meta_object_id": "2025-298W",
        "meta_epoch": "2025-12-22T22:00:03.000096",
        "meta_mean_motion": 15.89423577,
        "meta_eccentricity": 0.00038079,
        "meta_inclination": 69.996,
        "meta_ra_of_asc_node": 221.0708,
        "meta_arg_of_pericenter": 273.1748,
        "meta_mean_anomaly": 71.2447,
        "meta_ephemeris_type": 0,
        "meta_classification_type": "U",
        "meta_norad_cat_id": 67095,
        "meta_element_set_no": 999,
        "meta_rev_at_epoch": 255,
        "meta_bstar": -0.0068389901,
        "meta_mean_motion_dot": -0.01977587,
        "meta_mean_motion_ddot": 0.0010405678,
        "tle_line1": "1 67095U 25298W   25356.91670139 -.01977587  10406-2 -68390-2 0  9997",
        "tle_line2": "2 67095  69.9960 221.0708 0003807 273.1748  71.2447 15.89423577  2556"
      },
      "geometry": {
        "type": "Point",
        "coordinates": [
          155.18006840706082,
          -68.01387206011445
        ]
      }
    },
    {
      "type": "Feature",
      "properties": {
        "norad_id": 67096,
        "name": "STARLINK-36228",
        "group": "last-30-days",
        "lat": -67.23449609576335,
        "lon": 159.4048869653971,
        "alt_km": 313.3689548175262,
        "timestamp": "2025-12-23T09:49:05.800849+00:00",
        "meta_object_name": "STARLINK-36228",
        "meta_object_id": "2025-298X",
        "meta_epoch": "2025-12-22T22:00:03.000096",
        "meta_mean_motion": 15.89430571,
        "meta_eccentricity": 0.00040897,
        "meta_inclination": 69.9963,
        "meta_ra_of_asc_node": 221.0689,
        "meta_arg_of_pericenter": 269.9514,
        "meta_mean_anomaly": 76.2417,
        "meta_ephemeris_type": 0,
        "meta_classification_type": "U",
        "meta_norad_cat_id": 67096,
        "meta_element_set_no": 999,
        "meta_rev_at_epoch": 255,
        "meta_bstar": -0.0068318053,
        "meta_mean_motion_dot": -0.0197641,
        "meta_mean_motion_ddot": 0.0010394816,
        "tle_line1": "1 67096U 25298X   25356.91670139 -.01976410  10395-2 -68318-2 0  9999",
        "tle_line2": "2 67096  69.9963 221.0689 0004089 269.9514  76.2417 15.89430571  2559"
      },
      "geometry": {
        "type": "Point",
        "coordinates": [
          159.4048869653971,
          -67.23449609576335
        ]
      }
    },
    {
      "type": "Feature",
      "properties": {
        "norad_id": 67097,
        "name": "STARLINK-36222",
        "group": "last-30-days",
        "lat": -66.230730128807,
        "lon": 163.83061385790936,
        "alt_km": 313.318187318735,
        "timestamp": "2025-12-23T09:49:05.800861+00:00",
        "meta_object_name": "STARLINK-36222",
        "meta_object_id": "2025-298Y",
        "meta_epoch": "2025-12-22T22:00:03.000096",
        "meta_mean_motion": 15.89431184,
        "meta_eccentricity": 0.00042102,
        "meta_inclination": 69.9962,
        "meta_ra_of_asc_node": 221.0663,
        "meta_arg_of_pericenter": 268.9272,
        "meta_mean_anomaly": 79.2861,
        "meta_ephemeris_type": 0,
        "meta_classification_type": "U",
        "meta_norad_cat_id": 67097,
        "meta_element_set_no": 999,
        "meta_rev_at_epoch": 255,
        "meta_bstar": -0.0068451382,
        "meta_mean_motion_dot": -0.01980368,
        "meta_mean_motion_ddot": 0.0010433879,
        "tle_line1": "1 67097U 25298Y   25356.91670139 -.01980368  10434-2 -68451-2 0  9999",
        "tle_line2": "2 67097  69.9962 221.0663 0004210 268.9272  79.2861 15.89431184  2554"
      },
      "geometry": {
        "type": "Point",
        "coordinates": [
          163.83061385790936,
          -66.230730128807
        ]
      }
    },
    {
      "type": "Feature",
      "properties": {
        "norad_id": 67098,
        "name": "STARLINK-36205",
        "group": "last-30-days",
        "lat": -64.99842240605194,
        "lon": 168.26920564062289,
        "alt_km": 313.5124180746525,
        "timestamp": "2025-12-23T09:49:05.800871+00:00",
        "meta_object_name": "STARLINK-36205",
        "meta_object_id": "2025-298Z",
        "meta_epoch": "2025-12-22T22:00:03.000096",
        "meta_mean_motion": 15.89447947,
        "meta_eccentricity": 0.00040665,
        "meta_inclination": 69.9962,
        "meta_ra_of_asc_node": 221.0637,
        "meta_arg_of_pericenter": 267.7301,
        "meta_mean_anomaly": 82.6994,
        "meta_ephemeris_type": 0,
        "meta_classification_type": "U",
        "meta_norad_cat_id": 67098,
        "meta_element_set_no": 999,
        "meta_rev_at_epoch": 261,
        "meta_bstar": -0.0069842041,
        "meta_mean_motion_dot": -0.02021683,
        "meta_mean_motion_ddot": 0.0010847277,
        "tle_line1": "1 67098U 25298Z   25356.91670139 -.02021683  10847-2 -69842-2 0  9990",
        "tle_line2": "2 67098  69.9962 221.0637 0004066 267.7301  82.6994 15.89447947  2611"
      },
      "geometry": {
        "type": "Point",
        "coordinates": [
          168.26920564062289,
          -64.99842240605194
        ]
      }
    },
    {
      "type": "Feature",
      "properties": {
        "norad_id": 67099,
        "name": "STARLINK-36193",
        "group": "last-30-days",
        "lat": -62.80756545700968,
        "lon": 174.47508881752086,
        "alt_km": 313.33907545571674,
        "timestamp": "2025-12-23T09:49:05.800881+00:00",
        "meta_object_name": "STARLINK-36193",
        "meta_object_id": "2025-298AA",
        "meta_epoch": "2025-12-22T22:00:03.000096",
        "meta_mean_motion": 15.89414708,
        "meta_eccentricity": 0.0004156,
        "meta_inclination": 69.9962,
        "meta_ra_of_asc_node": 221.0598,
        "meta_arg_of_pericenter": 271.3335,
        "meta_mean_anomaly": 82.6083,
        "meta_ephemeris_type": 0,
        "meta_classification_type": "U",
        "meta_norad_cat_id": 67099,
        "meta_element_set_no": 999,
        "meta_rev_at_epoch": 255,
        "meta_bstar": -0.0067723836,
        "meta_mean_motion_dot": -0.01957938,
        "meta_mean_motion_ddot": 0.0010212198,
        "tle_line1": "1 67099U 25298AA  25356.91670139 -.01957938  10212-2 -67724-2 0  9994",
        "tle_line2": "2 67099  69.9962 221.0598 0004156 271.3335  82.6083 15.89414708  2557"
      },
      "geometry": {
        "type": "Point",
        "coordinates": [
          174.47508881752086,
          -62.80756545700968
        ]
      }
    },
    {
      "type": "Feature",
      "properties": {
        "norad_id": 67100,
        "name": "STARLINK-36215",
        "group": "last-30-days",
        "lat": -61.52311454638253,
        "lon": 177.44193096711572,
        "alt_km": 313.7128129440007,
        "timestamp": "2025-12-23T09:49:05.800891+00:00",
        "meta_object_name": "STARLINK-36215",
        "meta_object_id": "2025-298AB",
        "meta_epoch": "2025-12-22T22:00:03.000096",
        "meta_mean_motion": 15.89412773,
        "meta_eccentricity": 0.00035975,
        "meta_inclination": 69.9961,
        "meta_ra_of_asc_node": 221.0574,
        "meta_arg_of_pericenter": 270.3399,
        "meta_mean_anomaly": 85.4916,
        "meta_ephemeris_type": 0,
        "meta_classification_type": "U",
        "meta_norad_cat_id": 67100,
        "meta_element_set_no": 999,
        "meta_rev_at_epoch": 261,
        "meta_bstar": -0.0067422934,
        "meta_mean_motion_dot": -0.01948787,
        "meta_mean_motion_ddot": 0.0010122947,
        "tle_line1": "1 67100U 25298AB  25356.91670139 -.01948787  10123-2 -67423-2 0  9996",
        "tle_line2": "2 67100  69.9961 221.0574 0003597 270.3399  85.4916 15.89412773  2613"
      },
      "geometry": {
        "type": "Point",
        "coordinates": [
          177.44193096711572,
          -61.52311454638253
        ]
      }
    },
    {
      "type": "Feature",
      "properties": {
        "norad_id": 67101,
        "name": "STARLINK-36200",
        "group": "last-30-days",
        "lat": -63.94911337734711,
        "lon": 171.4578283330639,
        "alt_km": 313.4653720663464,
        "timestamp": "2025-12-23T09:49:05.800901+00:00",
        "meta_object_name": "STARLINK-36200",
        "meta_object_id": "2025-298AC",
        "meta_epoch": "2025-12-22T22:00:03.000096",
        "meta_mean_motion": 15.89406824,
        "meta_eccentricity": 0.00040136,
        "meta_inclination": 69.9964,
        "meta_ra_of_asc_node": 221.062,
        "meta_arg_of_pericenter": 269.4366,
        "meta_mean_anomaly": 82.7425,
        "meta_ephemeris_type": 0,
        "meta_classification_type": "U",
        "meta_norad_cat_id": 67101,
        "meta_element_set_no": 999,
        "meta_rev_at_epoch": 261,
        "meta_bstar": -0.006762086,
        "meta_mean_motion_dot": -0.01954135,
        "meta_mean_motion_ddot": 0.0010174347,
        "tle_line1": "1 67101U 25298AC  25356.91670139 -.01954135  10174-2 -67621-2 0  9997",
        "tle_line2": "2 67101  69.9964 221.0620 0004013 269.4366  82.7425 15.89406824  2611"
      },
      "geometry": {
        "type": "Point",
        "coordinates": [
          171.4578283330639,
          -63.94911337734711
        ]
      }
    }
  ]
}